#aV2020  2 21  0  0  0.00000000     288 DD+AD WGS84 FIT  NGA
## 2093 432000.00000000   300.00000000 58900 0.0000000000000
+   32     1  2  3  4  5  6  7  8  9 10 11 12 13 14 15 16 17
+         18 19 20 21 22 23 24 25 26 27 28 29 30 31 32  0  0
+          0  0  0  0  0  0  0  0  0  0  0  0  0  0  0  0  0
+          0  0  0  0  0  0  0  0  0  0  0  0  0  0  0  0  0
+          0  0  0  0  0  0  0  0  0  0  0  0  0  0  0  0  0
++         2  2  2  2  2  2  2  2  2  2  2  2  2  2  2  2  2
++         2  2  2  2  2  2  2  2  2  2  2  2  2  2  2  0  0
++         0  0  0  0  0  0  0  0  0  0  0  0  0  0  0  0  0
++         0  0  0  0  0  0  0  0  0  0  0  0  0  0  0  0  0
++         0  0  0  0  0  0  0  0  0  0  0  0  0  0  0  0  0
%c cc cc ccc ccc cccc cccc cccc cccc ccccc ccccc ccccc ccccc
%c cc cc ccc ccc cccc cccc cccc cccc ccccc ccccc ccccc ccccc
%f  0.0000000  0.000000000  0.00000000000  0.000000000000000
%f  0.0000000  0.000000000  0.00000000000  0.000000000000000
%i    0    0    0    0      0      0      0      0         0
%i    0    0    0    0      0      0      0      0         0
/*      NGA, ST. LOUIS,MO.                                  
/*   EPHEMERIS COMPUTED FROM 2 DAYS OF DATA                 
/*   EPOCHA v5 SMOOTHER                                     
/*   G1762 IERS2010 SATAF SATAPC                            
*  2020  2 21 15 10  0.00000000
P  1 -21643.260459 -13835.561545   7189.381836   -302.200019                    
V  1  -5448.940690  -7783.155333 -30183.328846     -0.122426                    
P  2  10066.389529  20773.763082  13848.736835   -408.850084                    
V  2 -14076.951286  -8850.712042  24581.734922     -0.068714                    
P  3 -14164.688773  -5505.196815  21731.011996    -99.841646                    
V  3   6455.584911 -26946.509721  -2518.998882     -0.090517                    
P  4 -23757.475258  -2079.027279  11726.873380    -52.018533                    
V  4  13736.617742  -6174.034631  26725.935559     -0.053535                    
P  5   3662.467086  23588.416934 -11569.069303     -7.946494                    
V  5  -5544.665804  13752.816461  26784.929312     -0.005986                    
P  6  -1246.062149  17348.913669  20117.040279   -213.906451                    
V  6 -19212.492806 -16615.305446  13212.314285     -0.091820                    
P  7 -18273.427556   1292.431876 -19107.961525   -219.479895                    
V  7 -17025.641024 -18004.653820  14367.995514     -0.084564                    
P  8 -16164.759196  -8669.995121 -19269.711250    -24.555680                    
V  8  22917.579787  -8501.627354 -15134.786690     -0.013560                    
P  9 -25624.902997   6701.445254   2063.601992   -160.589402                    
V  9   1625.883639  -3723.377736  31422.023322     -0.084288                    
P 10  11525.054832 -21945.594141  -9131.268091   -252.807826                    
V 10    -65.756779  12065.625891 -29054.644765     -0.129289                    
P 11 -21344.465838 -13290.802953  -8575.931202   -354.812363                    
V 11  11148.569047   -972.052076 -28148.504839      0.108813                    
P 12  12137.675015   9483.339284  21433.931753    148.796193                    
V 12  -8509.891242  26335.618247  -6595.437564     -0.041811                    
P 13   7683.139945  13722.516583 -21537.288251    -11.207688                    
V 13 -26556.301803   5018.467177  -6232.315938      0.027669                    
P 14   7511.223296 -16023.907828  20081.207918    -31.032951                    
V 14  24501.400009  -4187.305985 -12900.708381      0.024264                    
P 15  17781.333864   7653.551664 -18644.880754   -250.022056                    
V 15 -20604.884468  10423.490106 -15247.967800      0.026305                    
P 16   -986.897413 -23410.113491 -12263.067016   -126.938707                    
V 16   6791.343637 -13962.623293  26996.287791     -0.041752                    
P 17 -17520.973579  14165.516500  14446.842860    219.834164                    
V 17 -17442.857541   2732.250782 -24609.100800      0.063352                    
P 18 -19677.834886 -17879.112047  -1521.890146      3.719489                    
V 18   2838.404622  -1328.766878 -31543.819412      0.018681                    
P 19 -10760.757517  14935.642356  18853.959094   -195.652296                    
V 19 -24271.577284   3580.857997 -16431.325418      0.051330                    
P 20  14554.265519 -13279.470456 -17801.524609    527.872574                    
V 20    -88.380885  22705.398249 -17300.782443      0.000174                    
P 21  16627.908340  -4257.098714 -19409.141481    -37.926408                    
V 21  19530.501493  17980.831929  12539.240977      0.053343                    
P 22 -12252.134915 -14247.176613  19033.604406   -784.900542                    
V 22   5064.655691 -23292.463627 -14224.411236     -0.005169                    
P 23 -24379.329977   -596.677537  11328.999428   -134.798663                    
V 23  12275.111328  -6673.647520  26544.321925      0.026043                    
P 24  22278.022599  13971.434773   4738.342823     -9.371932                    
V 24   2726.967320   6443.652852 -30206.107783     -0.004732                    
P 25  15683.129208  -4343.944636  20702.980011    -12.296467                    
V 25  -5197.086619  26373.121906   9633.251718      0.014987                    
P 26   3558.635304 -26104.208017  -2237.636704    152.906968                    
V 26   3886.394623  -2112.874277  31444.162216      0.077066                    
P 27  -4713.311121 -14121.550038 -22120.127946   -217.599820                    
V 27  26550.924634  -8015.732089   -219.500448     -0.109797                    
P 28 -12328.211151  22378.008556  -6923.700166    737.781573                    
V 28    978.872759  -9717.494112 -30425.539630     -0.025451                    
P 29  26084.753237  -3882.455310   3198.187275    -38.584778                    
V 29  -3535.030308   2861.223230  31951.330167     -0.093856                    
P 30 -10070.790045  12071.890459 -21370.548623   -158.450150                    
V 30 -19462.940383 -19146.192949  -1841.514296     -0.089205                    
P 31   -441.114996 -18777.551011  18555.705274    -24.684444                    
V 31  18190.845249  15472.181173  16509.571538     -0.024497                    
P 32  16229.387763 -15518.315864  14142.709312    218.081412                    
V 32  17781.411991  -3144.010971 -24107.563022      0.096938                    
EOF
